HST                     
1 20580U 90037B   26068.15977042  .00009063  00000+0  30023-3 0  9999
2 20580  28.4717  43.6133 0001837 120.9992 239.0785 15.29473555773239
STARLINK-32201          
1 61512U 24183D   26068.43019996  .00000088  00000+0  15082-4 0  9991
2 61512  53.1600 130.8022 0000953  92.4645 267.6464 15.30191196 79798
