[{"OBJECT_NAME":"HST","OBJECT_ID":"1990-037B","EPOCH":"2026-03-09T03:50:04.164288","MEAN_MOTION":15.29473555,"ECCENTRICITY":0.00018372,"INCLINATION":28.4717,"RA_OF_ASC_NODE":43.6133,"ARG_OF_PERICENTER":120.9992,"MEAN_ANOMALY":239.0785,"EPHEMERIS_TYPE":0,"CLASSIFICATION_TYPE":"U","NORAD_CAT_ID":20580,"ELEMENT_SET_NO":999,"REV_AT_EPOCH":77323,"BSTAR":0.0003002261,"MEAN_MOTION_DOT":9.063e-5,"MEAN_MOTION_DDOT":0},{"OBJECT_NAME":"STARLINK-32201","OBJECT_ID":"2024-183D","EPOCH":"2026-03-09T10:19:29.276544","MEAN_MOTION":15.30191196,"ECCENTRICITY":9.534e-5,"INCLINATION":53.16,"RA_OF_ASC_NODE":130.8022,"ARG_OF_PERICENTER":92.4645,"MEAN_ANOMALY":267.6464,"EPHEMERIS_TYPE":0,"CLASSIFICATION_TYPE":"U","NORAD_CAT_ID":61512,"ELEMENT_SET_NO":999,"REV_AT_EPOCH":7979,"BSTAR":1.508192e-5,"MEAN_MOTION_DOT":8.8e-7,"MEAN_MOTION_DDOT":0}]
